2024-092D               
1 59776U 24092D   26068.88372108  .00024443  00000+0  76511-3 0  9999
2 59776  97.6418 198.2302 0008340 141.9853 218.1979 15.33078357100518
STARLINK-35566          
1 66061U 25235D   26068.75022624  .00021336  00000+0  73036-3 0  9992
2 66061  53.1598 244.7815 0000945  58.9602 301.1491 15.30202439 22935
